{
  "norad_id": 62261,
  "name": "SENTINEL-1C",
  "history": [
    {
      "epoch": "2026-03-28T05:06:04.790016Z",
      "apogee_km": 696.7134593511546,
      "perigee_km": 694.8035075706193,
      "latitude_deg": -3.193044416750326e-05,
      "longitude_deg": -166.48189369347762,
      "height_km": 698.754814379741,
      "semi_major_axis_km": 7073.895483460887,
      "eccentricity": 0.000135,
      "inclination_deg": 98.1823,
      "raan_deg": 95.6743,
      "arg_perigee_deg": 90.833,
      "mean_anomaly_deg": 269.3024,
      "mean_motion_rev_day": 14.59199942
    },
    {
      "epoch": "2026-03-30T04:49:37.497216Z",
      "apogee_km": 696.7170384736728,
      "perigee_km": 694.8099149051568,
      "latitude_deg": -7.912289219516453e-06,
      "longitude_deg": -162.3679036828828,
      "height_km": 698.764439955089,
      "semi_major_axis_km": 7073.900476689414,
      "eccentricity": 0.0001348,
      "inclination_deg": 98.1822,
      "raan_deg": 97.6346,
      "arg_perigee_deg": 91.1125,
      "mean_anomaly_deg": 269.0229,
      "mean_motion_rev_day": 14.59198397
    },
    {
      "epoch": "2026-03-30T06:28:22.073952Z",
      "apogee_km": 696.7172535513555,
      "perigee_km": 694.8095640891042,
      "latitude_deg": -1.2753729306677173e-05,
      "longitude_deg": 172.94637354409525,
      "height_km": 698.7633287675739,
      "semi_major_axis_km": 7073.900408820229,
      "eccentricity": 0.00013484,
      "inclination_deg": 98.1822,
      "raan_deg": 97.7022,
      "arg_perigee_deg": 91.0495,
      "mean_anomaly_deg": 269.0859,
      "mean_motion_rev_day": 14.59198418
    },
    {
      "epoch": "2026-03-30T13:03:20.361024Z",
      "apogee_km": 696.7191407657974,
      "perigee_km": 694.8063582735276,
      "latitude_deg": -5.400229429424316e-05,
      "longitude_deg": 74.20356860819561,
      "height_km": 698.7621354920594,
      "semi_major_axis_km": 7073.899749519663,
      "eccentricity": 0.0001352,
      "inclination_deg": 98.1822,
      "raan_deg": 97.9726,
      "arg_perigee_deg": 91.0147,
      "mean_anomaly_deg": 269.1207,
      "mean_motion_rev_day": 14.59198622
    },
    {
      "epoch": "2026-03-30T22:55:47.785152Z",
      "apogee_km": 696.7172805592008,
      "perigee_km": 694.8063375349238,
      "latitude_deg": 5.957916657513055e-05,
      "longitude_deg": -73.91073681369687,
      "height_km": 698.7576469782374,
      "semi_major_axis_km": 7073.898809047062,
      "eccentricity": 0.00013507,
      "inclination_deg": 98.1821,
      "raan_deg": 98.3781,
      "arg_perigee_deg": 90.8036,
      "mean_anomaly_deg": 269.3319,
      "mean_motion_rev_day": 14.59198913
    },
    {
      "epoch": "2026-03-31T20:19:27.185952Z",
      "apogee_km": 696.7174008200327,
      "perigee_km": 694.8017896220463,
      "latitude_deg": -7.564459109229224e-05,
      "longitude_deg": -34.82471801155323,
      "height_km": 698.7632835340225,
      "semi_major_axis_km": 7073.896595221039,
      "eccentricity": 0.0001354,
      "inclination_deg": 98.1821,
      "raan_deg": 99.2569,
      "arg_perigee_deg": 91.2703,
      "mean_anomaly_deg": 268.8651,
      "mean_motion_rev_day": 14.59199598
    },
    {
      "epoch": "2026-04-01T11:08:08.323872Z",
      "apogee_km": 696.7188035257932,
      "perigee_km": 694.8019188188637,
      "latitude_deg": 1.076872578766587e-05,
      "longitude_deg": 103.00387871689226,
      "height_km": 698.7507136680836,
      "semi_major_axis_km": 7073.897361172329,
      "eccentricity": 0.00013549,
      "inclination_deg": 98.1821,
      "raan_deg": 99.8652,
      "arg_perigee_deg": 90.4732,
      "mean_anomaly_deg": 269.6623,
      "mean_motion_rev_day": 14.59199361
    },
    {
      "epoch": "2026-04-02T23:20:28.969728Z",
      "apogee_km": 696.7195435760605,
      "perigee_km": 694.8050634685551,
      "latitude_deg": 3.060568180897197e-05,
      "longitude_deg": -80.08196387966056,
      "height_km": 698.7552675539416,
      "semi_major_axis_km": 7073.8993035223075,
      "eccentricity": 0.00013532,
      "inclination_deg": 98.1823,
      "raan_deg": 101.3523,
      "arg_perigee_deg": 90.6305,
      "mean_anomaly_deg": 269.505,
      "mean_motion_rev_day": 14.5919876
    },
    {
      "epoch": "2026-04-03T20:44:08.379168Z",
      "apogee_km": 696.7151461268322,
      "perigee_km": 694.803779302606,
      "latitude_deg": 6.373770324675109e-05,
      "longitude_deg": -40.99600653896497,
      "height_km": 698.7756138647804,
      "semi_major_axis_km": 7073.896462714719,
      "eccentricity": 0.0001351,
      "inclination_deg": 98.1823,
      "raan_deg": 102.2311,
      "arg_perigee_deg": 92.0217,
      "mean_anomaly_deg": 268.1138,
      "mean_motion_rev_day": 14.59199639
    },
    {
      "epoch": "2026-04-04T06:36:35.798976Z",
      "apogee_km": 696.7211155448776,
      "perigee_km": 694.7984304019828,
      "latitude_deg": 6.477280574421745e-05,
      "longitude_deg": 170.88982143631293,
      "height_km": 698.7570460209288,
      "semi_major_axis_km": 7073.8967729734295,
      "eccentricity": 0.0001359,
      "inclination_deg": 98.1823,
      "raan_deg": 102.6367,
      "arg_perigee_deg": 90.8854,
      "mean_anomaly_deg": 269.2502,
      "mean_motion_rev_day": 14.59199543
    },
    {
      "epoch": "2026-04-07T15:15:00.199872Z",
      "apogee_km": 696.7288221353992,
      "perigee_km": 694.8027398861868,
      "latitude_deg": 3.755042227370978e-05,
      "longitude_deg": 41.28867641048708,
      "height_km": 698.763504437334,
      "semi_major_axis_km": 7073.902781010793,
      "eccentricity": 0.00013614,
      "inclination_deg": 98.1822,
      "raan_deg": 105.949,
      "arg_perigee_deg": 90.9106,
      "mean_anomaly_deg": 269.225,
      "mean_motion_rev_day": 14.59197684
    },
    {
      "epoch": "2026-04-07T20:11:13.924896Z",
      "apogee_km": 696.7267817741249,
      "perigee_km": 694.8040950913592,
      "latitude_deg": -3.512258809949485e-05,
      "longitude_deg": -32.768462774413024,
      "height_km": 698.7609262283589,
      "semi_major_axis_km": 7073.902438432741,
      "eccentricity": 0.0001359,
      "inclination_deg": 98.1822,
      "raan_deg": 106.1518,
      "arg_perigee_deg": 90.7781,
      "mean_anomaly_deg": 269.3574,
      "mean_motion_rev_day": 14.5919779
    },
    {
      "epoch": "2026-04-08T14:17:24.228384Z",
      "apogee_km": 696.7221163767153,
      "perigee_km": 694.8063624430597,
      "latitude_deg": -7.029746641361503e-05,
      "longitude_deg": 55.68875062369887,
      "height_km": 698.7820045522764,
      "semi_major_axis_km": 7073.901239409887,
      "eccentricity": 0.00013541,
      "inclination_deg": 98.1823,
      "raan_deg": 106.8954,
      "arg_perigee_deg": 92.1129,
      "mean_anomaly_deg": 268.0225,
      "mean_motion_rev_day": 14.59198161
    },
    {
      "epoch": "2026-04-09T19:54:46.552608Z",
      "apogee_km": 696.7294062438123,
      "perigee_km": 694.7968167333529,
      "latitude_deg": 9.057113666610073e-05,
      "longitude_deg": -28.654061598920684,
      "height_km": 698.7770069852841,
      "semi_major_axis_km": 7073.900111488582,
      "eccentricity": 0.0001366,
      "inclination_deg": 98.1824,
      "raan_deg": 108.1122,
      "arg_perigee_deg": 91.8677,
      "mean_anomaly_deg": 268.268,
      "mean_motion_rev_day": 14.5919851
    },
    {
      "epoch": "2026-04-10T07:25:58.558656Z",
      "apogee_km": 696.7302403237882,
      "perigee_km": 694.7952457880738,
      "latitude_deg": -3.287390460232111e-05,
      "longitude_deg": 158.54601996367262,
      "height_km": 698.7659074775722,
      "semi_major_axis_km": 7073.899743055931,
      "eccentricity": 0.00013677,
      "inclination_deg": 98.1824,
      "raan_deg": 108.5854,
      "arg_perigee_deg": 91.2289,
      "mean_anomaly_deg": 268.9067,
      "mean_motion_rev_day": 14.59198624
    },
    {
      "epoch": "2026-04-11T19:38:19.137984Z",
      "apogee_km": 696.6708803451456,
      "perigee_km": 694.8557175284377,
      "latitude_deg": -5.48837065653501e-05,
      "longitude_deg": -24.53954294960253,
      "height_km": 698.7814585038309,
      "semi_major_axis_km": 7073.900298936791,
      "eccentricity": 0.0001283,
      "inclination_deg": 98.1822,
      "raan_deg": 110.0725,
      "arg_perigee_deg": 92.2474,
      "mean_anomaly_deg": 267.8872,
      "mean_motion_rev_day": 14.59198452
    },
    {
      "epoch": "2026-04-13T07:50:39.786432Z",
      "apogee_km": 696.6762338383805,
      "perigee_km": 694.8539966534936,
      "latitude_deg": -1.556578045798937e-05,
      "longitude_deg": 152.3747988981702,
      "height_km": 698.7775171215455,
      "semi_major_axis_km": 7073.902115245937,
      "eccentricity": 0.0001288,
      "inclination_deg": 98.1822,
      "raan_deg": 111.5598,
      "arg_perigee_deg": 91.8774,
      "mean_anomaly_deg": 268.2573,
      "mean_motion_rev_day": 14.5919789
    },
    {
      "epoch": "2026-04-14T20:03:00.439200Z",
      "apogee_km": 696.7408343826073,
      "perigee_km": 694.7856083614197,
      "latitude_deg": 3.6594276132497017e-06,
      "longitude_deg": -30.711072172661815,
      "height_km": 698.7683075319322,
      "semi_major_axis_km": 7073.900221372013,
      "eccentricity": 0.0001382,
      "inclination_deg": 98.1821,
      "raan_deg": 113.0469,
      "arg_perigee_deg": 91.33,
      "mean_anomaly_deg": 268.8058,
      "mean_motion_rev_day": 14.59198476
    },
    {
      "epoch": "2026-04-15T20:44:09.040992Z",
      "apogee_km": 696.7503228235819,
      "perigee_km": 694.780948329837,
      "latitude_deg": -1.0860596371538832e-05,
      "longitude_deg": -40.9966155259228,
      "height_km": 698.7698923376622,
      "semi_major_axis_km": 7073.902635576709,
      "eccentricity": 0.0001392,
      "inclination_deg": 98.183,
      "raan_deg": 114.061,
      "arg_perigee_deg": 91.2747,
      "mean_anomaly_deg": 268.8612,
      "mean_motion_rev_day": 14.59197729
    }
  ]
}